{
  "type": "FeatureCollection",
  "metadata": {
    "city": "Anglet (Pays Basque)",
    "department": "64 - Pyrénées-Atlantiques",
    "count": 13
  },
  "features": [
    {
      "type": "Feature",
      "geometry": {
        "type": "Point",
        "coordinates": [
          -1.531599,
          43.485465
        ]
      },
      "properties": {
        "id": "anglet_1",
        "name": "Panneau #1, Anglet",
        "city": "Anglet (Pays Basque)",
        "type": "Affichage libre",
        "notes": "",
        "street_view": "https://www.google.com/maps/@43.485465,-1.531599,3a,75y,0h,90t/data=!3m4!1e1!3m2!1s!2e0"
      }
    },
    {
      "type": "Feature",
      "geometry": {
        "type": "Point",
        "coordinates": [
          -1.50167,
          43.51617
        ]
      },
      "properties": {
        "id": "anglet_2",
        "name": "Panneau #2, Anglet",
        "city": "Anglet (Pays Basque)",
        "type": "Affichage libre",
        "notes": "",
        "street_view": "https://www.google.com/maps/@43.51617,-1.50167,3a,75y,0h,90t/data=!3m4!1e1!3m2!1s!2e0"
      }
    },
    {
      "type": "Feature",
      "geometry": {
        "type": "Point",
        "coordinates": [
          -1.52052,
          43.476612
        ]
      },
      "properties": {
        "id": "anglet_3",
        "name": "Panneau #3, Anglet",
        "city": "Anglet (Pays Basque)",
        "type": "Affichage libre",
        "notes": "",
        "street_view": "https://www.google.com/maps/@43.476612,-1.52052,3a,75y,0h,90t/data=!3m4!1e1!3m2!1s!2e0"
      }
    },
    {
      "type": "Feature",
      "geometry": {
        "type": "Point",
        "coordinates": [
          -1.526706,
          43.503573
        ]
      },
      "properties": {
        "id": "anglet_4",
        "name": "Panneau #4, Anglet",
        "city": "Anglet (Pays Basque)",
        "type": "Affichage libre",
        "notes": "",
        "street_view": "https://www.google.com/maps/@43.503573,-1.526706,3a,75y,0h,90t/data=!3m4!1e1!3m2!1s!2e0"
      }
    },
    {
      "type": "Feature",
      "geometry": {
        "type": "Point",
        "coordinates": [
          -1.507862,
          43.479897
        ]
      },
      "properties": {
        "id": "anglet_5",
        "name": "Panneau #5, Anglet",
        "city": "Anglet (Pays Basque)",
        "type": "Affichage libre",
        "notes": "",
        "street_view": "https://www.google.com/maps/@43.479897,-1.507862,3a,75y,0h,90t/data=!3m4!1e1!3m2!1s!2e0"
      }
    },
    {
      "type": "Feature",
      "geometry": {
        "type": "Point",
        "coordinates": [
          -1.522274,
          43.52092
        ]
      },
      "properties": {
        "id": "anglet_6",
        "name": "Panneau #6, Anglet",
        "city": "Anglet (Pays Basque)",
        "type": "Affichage libre",
        "notes": "",
        "street_view": "https://www.google.com/maps/@43.52092,-1.522274,3a,75y,0h,90t/data=!3m4!1e1!3m2!1s!2e0"
      }
    },
    {
      "type": "Feature",
      "geometry": {
        "type": "Point",
        "coordinates": [
          -1.493092,
          43.476642
        ]
      },
      "properties": {
        "id": "anglet_7",
        "name": "Panneau #7, Anglet",
        "city": "Anglet (Pays Basque)",
        "type": "Affichage libre",
        "notes": "",
        "street_view": "https://www.google.com/maps/@43.476642,-1.493092,3a,75y,0h,90t/data=!3m4!1e1!3m2!1s!2e0"
      }
    },
    {
      "type": "Feature",
      "geometry": {
        "type": "Point",
        "coordinates": [
          -1.530387,
          43.496021
        ]
      },
      "properties": {
        "id": "anglet_8",
        "name": "Panneau #8, Anglet",
        "city": "Anglet (Pays Basque)",
        "type": "Affichage libre",
        "notes": "",
        "street_view": "https://www.google.com/maps/@43.496021,-1.530387,3a,75y,0h,90t/data=!3m4!1e1!3m2!1s!2e0"
      }
    },
    {
      "type": "Feature",
      "geometry": {
        "type": "Point",
        "coordinates": [
          -1.503446,
          43.505146
        ]
      },
      "properties": {
        "id": "anglet_9",
        "name": "Panneau #9, Anglet",
        "city": "Anglet (Pays Basque)",
        "type": "Affichage libre",
        "notes": "",
        "street_view": "https://www.google.com/maps/@43.505146,-1.503446,3a,75y,0h,90t/data=!3m4!1e1!3m2!1s!2e0"
      }
    },
    {
      "type": "Feature",
      "geometry": {
        "type": "Point",
        "coordinates": [
          -1.499345,
          43.465047
        ]
      },
      "properties": {
        "id": "anglet_10",
        "name": "Panneau #10, Anglet",
        "city": "Anglet (Pays Basque)",
        "type": "Affichage libre",
        "notes": "",
        "street_view": "https://www.google.com/maps/@43.465047,-1.499345,3a,75y,0h,90t/data=!3m4!1e1!3m2!1s!2e0"
      }
    },
    {
      "type": "Feature",
      "geometry": {
        "type": "Point",
        "coordinates": [
          -1.513243,
          43.497292
        ]
      },
      "properties": {
        "id": "anglet_11",
        "name": "Panneau #11, Anglet",
        "city": "Anglet (Pays Basque)",
        "type": "Affichage libre",
        "notes": "",
        "street_view": "https://www.google.com/maps/@43.497292,-1.513243,3a,75y,0h,90t/data=!3m4!1e1!3m2!1s!2e0"
      }
    },
    {
      "type": "Feature",
      "geometry": {
        "type": "Point",
        "coordinates": [
          -1.506274,
          43.489793
        ]
      },
      "properties": {
        "id": "anglet_12",
        "name": "Panneau #12, Anglet",
        "city": "Anglet (Pays Basque)",
        "type": "Affichage libre",
        "notes": "",
        "street_view": "https://www.google.com/maps/@43.489793,-1.506274,3a,75y,0h,90t/data=!3m4!1e1!3m2!1s!2e0"
      }
    },
    {
      "type": "Feature",
      "geometry": {
        "type": "Point",
        "coordinates": [
          -1.520807,
          43.463592
        ]
      },
      "properties": {
        "id": "anglet_13",
        "name": "Panneau #13, Anglet",
        "city": "Anglet (Pays Basque)",
        "type": "Affichage libre",
        "notes": "",
        "street_view": "https://www.google.com/maps/@43.463592,-1.520807,3a,75y,0h,90t/data=!3m4!1e1!3m2!1s!2e0"
      }
    }
  ]
}