{
  "type": "FeatureCollection",
  "metadata": {
    "city": "Champagne-au-Mont-d'Or",
    "department": "69 - Rhône",
    "count": 3
  },
  "features": [
    {
      "type": "Feature",
      "geometry": {
        "type": "Point",
        "coordinates": [
          4.779087,
          45.798592
        ]
      },
      "properties": {
        "id": "champagne_au_mont_d_or_1",
        "name": "chemin du Coulouvrier",
        "city": "Champagne-au-Mont-d'Or",
        "type": "Affichage libre",
        "notes": "(1,30 x 0,97) sur le parking du stade René Eollet",
        "street_view": "https://www.google.com/maps/@45.798592,4.779087,3a,75y,0h,90t/data=!3m4!1e1!3m2!1s!2e0"
      }
    },
    {
      "type": "Feature",
      "geometry": {
        "type": "Point",
        "coordinates": [
          4.792196,
          45.791622
        ]
      },
      "properties": {
        "id": "champagne_au_mont_d_or_2",
        "name": "avenue de Lanessan",
        "city": "Champagne-au-Mont-d'Or",
        "type": "Affichage libre",
        "notes": "(1,30 x 0,97) sur le parking du Centre Technique Municipal",
        "street_view": "https://www.google.com/maps/@45.791622,4.792196,3a,75y,0h,90t/data=!3m4!1e1!3m2!1s!2e0"
      }
    },
    {
      "type": "Feature",
      "geometry": {
        "type": "Point",
        "coordinates": [
          4.792884,
          45.796987
        ]
      },
      "properties": {
        "id": "champagne_au_mont_d_or_3",
        "name": "place de la Mairie",
        "city": "Champagne-au-Mont-d'Or",
        "type": "Affichage libre",
        "notes": "(1,30 x 0,97) sur le parking derrière la Mairie",
        "street_view": "https://www.google.com/maps/@45.796987,4.792884,3a,75y,0h,90t/data=!3m4!1e1!3m2!1s!2e0"
      }
    }
  ]
}