{
  "type": "FeatureCollection",
  "metadata": {
    "city": "Issy-les-Moulineaux",
    "count": 21
  },
  "features": [
    {
      "type": "Feature",
      "geometry": {
        "type": "Point",
        "coordinates": [
          2.264657,
          48.814784
        ]
      },
      "properties": {
        "id": "issy_1",
        "name": "1 rue Marcel Sembat, Issy-les-Moulineaux",
        "city": "Issy-les-Moulineaux",
        "type": "Affichage libre",
        "notes": "Affichage libre",
        "street_view": "https://www.google.fr/maps/@48.814784,2.264657,3a,53.5y,202.08h,78.18t/data=!3m4!1e1!3m2!1sKmkop8pEdMYdVGlfq-n-5g!2e0"
      }
    },
    {
      "type": "Feature",
      "geometry": {
        "type": "Point",
        "coordinates": [
          2.274035,
          48.820869
        ]
      },
      "properties": {
        "id": "issy_2",
        "name": "3 rue Gabriel Péri, Issy-les-Moulineaux",
        "city": "Issy-les-Moulineaux",
        "type": "Affichage libre",
        "notes": "Affichage libre",
        "street_view": "https://www.google.fr/maps/@48.820869,2.274035,3a,74.6y,244.59h,70.76t/data=!3m4!1e1!3m2!1suLa4PHUbVgsEjmnETzJokg!2e0"
      }
    },
    {
      "type": "Feature",
      "geometry": {
        "type": "Point",
        "coordinates": [
          2.280154,
          48.82259
        ]
      },
      "properties": {
        "id": "issy_3",
        "name": "7 rue de l’Abbé Derry, Issy-les-Moulineaux",
        "city": "Issy-les-Moulineaux",
        "type": "Affichage libre",
        "notes": "Affichage libre",
        "street_view": "https://www.google.fr/maps/@48.82259,2.280154,3a,69.2y,207.14h,77.44t/data=!3m4!1e1!3m2!1sp4FMSdgU4r48PH_JadvjBA!2e0"
      }
    },
    {
      "type": "Feature",
      "geometry": {
        "type": "Point",
        "coordinates": [
          2.276642,
          48.822054
        ]
      },
      "properties": {
        "id": "issy_4",
        "name": "11 rue Jules Guesde, Issy-les-Moulineaux",
        "city": "Issy-les-Moulineaux",
        "type": "Affichage libre",
        "notes": "Affichage libre",
        "street_view": "https://www.google.fr/maps/@48.822054,2.276642,3a,74.2y,118.57h,75.21t/data=!3m4!1e1!3m2!1sdNpxg-U7TIjy3D_hn5-b6Q!2e0"
      }
    },
    {
      "type": "Feature",
      "geometry": {
        "type": "Point",
        "coordinates": [
          2.264806,
          48.828761
        ]
      },
      "properties": {
        "id": "issy_5",
        "name": "12 rue Rouget de Lisle, Issy-les-Moulineaux",
        "city": "Issy-les-Moulineaux",
        "type": "Affichage libre",
        "notes": "Affichage libre",
        "street_view": "https://www.google.fr/maps/@48.828761,2.264806,3a,50.9y,218.83h,81.66t/data=!3m4!1e1!3m2!1s_Bz5d42ElTYYKFiv3Ygbhw!2e0"
      }
    },
    {
      "type": "Feature",
      "geometry": {
        "type": "Point",
        "coordinates": [
          2.286006,
          48.827654
        ]
      },
      "properties": {
        "id": "issy_6",
        "name": "20 rue du 4 septembre, Issy-les-Moulineaux",
        "city": "Issy-les-Moulineaux",
        "type": "Affichage libre",
        "notes": "Affichage libre",
        "street_view": "https://www.google.fr/maps/@48.827654,2.286006,3a,75y,86.16h,69.92t/data=!3m4!1e1!3m2!1sFvvAj42b9ImTWdl09g3eYA!2e0"
      }
    },
    {
      "type": "Feature",
      "geometry": {
        "type": "Point",
        "coordinates": [
          2.247466,
          48.822683
        ]
      },
      "properties": {
        "id": "issy_7",
        "name": "25 avenue du Bas Meudon, Issy-les-Moulineaux",
        "city": "Issy-les-Moulineaux",
        "type": "Affichage libre",
        "notes": "Affichage libre",
        "street_view": "https://www.google.fr/maps/@48.822683,2.247466,3a,52.1y,228.83h,74.59t/data=!3m4!1e1!3m2!1sEM1vpJ11i5S_4EvaSXMESQ!2e0"
      }
    },
    {
      "type": "Feature",
      "geometry": {
        "type": "Point",
        "coordinates": [
          2.267007,
          48.827888
        ]
      },
      "properties": {
        "id": "issy_8",
        "name": "26 rue Rouget de Lisle, Issy-les-Moulineaux",
        "city": "Issy-les-Moulineaux",
        "type": "Affichage libre",
        "notes": "Affichage libre",
        "street_view": "https://www.google.fr/maps/@48.827888,2.267007,3a,68.4y,237.77h,80.78t/data=!3m4!1e1!3m2!1sOzJRzfZPtDl1T--3f4JP3w!2e0"
      }
    },
    {
      "type": "Feature",
      "geometry": {
        "type": "Point",
        "coordinates": [
          2.280526,
          48.828867
        ]
      },
      "properties": {
        "id": "issy_9",
        "name": "27 rue Séverine, Issy-les-Moulineaux",
        "city": "Issy-les-Moulineaux",
        "type": "Affichage libre",
        "notes": "Affichage libre",
        "street_view": "https://www.google.fr/maps/@48.828867,2.280526,3a,66.5y,228.07h,74.06t/data=!3m4!1e1!3m2!1sa5mO2mYyLhdPUGVBiqqyKQ!2e0"
      }
    },
    {
      "type": "Feature",
      "geometry": {
        "type": "Point",
        "coordinates": [
          2.267398,
          48.831597
        ]
      },
      "properties": {
        "id": "issy_10",
        "name": "32 rue Henri Farman, Issy-les-Moulineaux",
        "city": "Issy-les-Moulineaux",
        "type": "Affichage libre",
        "notes": "Affichage libre",
        "street_view": "https://www.google.fr/maps/@48.83157,2.267218,3a,30.2y,93.58h,85.86t/data=!3m5!1e1!3m3!1sbvR-612SuFP-wc_gHEQb1Q!2e0!5s20140701T000000"
      }
    },
    {
      "type": "Feature",
      "geometry": {
        "type": "Point",
        "coordinates": [
          2.259474,
          48.819176
        ]
      },
      "properties": {
        "id": "issy_11",
        "name": "65 boulevard Rodin, Issy-les-Moulineaux",
        "city": "Issy-les-Moulineaux",
        "type": "Affichage libre",
        "notes": "Affichage libre",
        "street_view": "https://www.google.fr/maps/@48.819176,2.259474,3a,71.2y,243.72h,73.1t/data=!3m4!1e1!3m2!1sy4MmEeB-kZ0INUUhIJl1sQ!2e0"
      }
    },
    {
      "type": "Feature",
      "geometry": {
        "type": "Point",
        "coordinates": [
          2.262934,
          48.824088
        ]
      },
      "properties": {
        "id": "issy_12",
        "name": "95 rue du Gouverneur Général Eboué, Issy-les-Moulineaux",
        "city": "Issy-les-Moulineaux",
        "type": "Affichage libre",
        "notes": "Affichage libre",
        "street_view": "https://www.google.fr/maps/@48.824088,2.262934,3a,45.7y,310.53h,79.13t/data=!3m5!1e1!3m3!1svoJISdP_j4IVW-IGDYmkCA!2e0!5s20140901T000000"
      }
    },
    {
      "type": "Feature",
      "geometry": {
        "type": "Point",
        "coordinates": [
          2.246218,
          48.820618
        ]
      },
      "properties": {
        "id": "issy_13",
        "name": "291 quai de Stalingrad, Issy-les-Moulineaux",
        "city": "Issy-les-Moulineaux",
        "type": "Affichage libre",
        "notes": "Affichage libre",
        "street_view": "https://www.google.fr/maps/@48.820618,2.246218,3a,77.4y,328.08h,81.55t/data=!3m4!1e1!3m2!1spLvnm2PaamM6Vw8T6BF5tw!2e0"
      }
    },
    {
      "type": "Feature",
      "geometry": {
        "type": "Point",
        "coordinates": [
          2.269396,
          48.819398
        ]
      },
      "properties": {
        "id": "issy_14",
        "name": "Avenue de la Paix, Issy-les-Moulineaux",
        "city": "Issy-les-Moulineaux",
        "type": "Affichage libre",
        "notes": "Affichage libre",
        "street_view": "https://www.google.fr/maps/@48.819398,2.269396,3a,71.9y,63.93h,71.7t/data=!3m4!1e1!3m2!1s9MuP4RRvf6fJ4Ci4J4vyew!2e0"
      }
    },
    {
      "type": "Feature",
      "geometry": {
        "type": "Point",
        "coordinates": [
          2.260845,
          48.821009
        ]
      },
      "properties": {
        "id": "issy_15",
        "name": "Avenue Victor Cresson, Issy-les-Moulineaux",
        "city": "Issy-les-Moulineaux",
        "type": "Affichage libre",
        "notes": "Affichage libre",
        "street_view": "https://www.google.fr/maps/@48.821009,2.260845,3a,54y,132.45h,78.56t/data=!3m4!1e1!3m2!1sz4DN8pHlfYWGDwdIDV2Z-g!2e0"
      }
    },
    {
      "type": "Feature",
      "geometry": {
        "type": "Point",
        "coordinates": [
          2.260715,
          48.827334
        ]
      },
      "properties": {
        "id": "issy_16",
        "name": "Boulevard Garibaldi, Issy-les-Moulineaux",
        "city": "Issy-les-Moulineaux",
        "type": "Affichage libre",
        "notes": "Affichage libre",
        "street_view": "https://www.google.fr/maps/place/Boulevard+Garibaldi,+92130+Issy-les-Moulineaux/@48.827334,2.260715,3a,90y,226.07h,62.34t/data=!3m4!1e1!3m2!1sL56HDcInZlBh67-0b-pKbw!2e0!4m2!3m1!1s0x47e67a8f13c6b9d5:0x8624ba096e8ef75b"
      }
    },
    {
      "type": "Feature",
      "geometry": {
        "type": "Point",
        "coordinates": [
          2.263569,
          48.83282
        ]
      },
      "properties": {
        "id": "issy_17",
        "name": "Quai du Président ROOSEVELT, Issy-les-Moulineaux",
        "city": "Issy-les-Moulineaux",
        "type": "Affichage libre",
        "notes": "Affichage libre",
        "street_view": "https://www.google.fr/maps/@48.83282,2.263569,3a,44.8y,327.63h,80.35t/data=!3m4!1e1!3m2!1ssbRWiSzZRBpMAkQNhMaCPw!2e0"
      }
    },
    {
      "type": "Feature",
      "geometry": {
        "type": "Point",
        "coordinates": [
          2.274047,
          48.827598
        ]
      },
      "properties": {
        "id": "issy_18",
        "name": "Rond point Victor Hugo, Issy-les-Moulineaux",
        "city": "Issy-les-Moulineaux",
        "type": "Affichage libre",
        "notes": "Affichage libre",
        "street_view": "https://www.google.fr/maps/@48.82771,2.274081,3a,49.1y,198.52h,79.18t/data=!3m4!1e1!3m2!1sz6h-j8f_vcTD0F-EkF8-6Q!2e0"
      }
    },
    {
      "type": "Feature",
      "geometry": {
        "type": "Point",
        "coordinates": [
          2.262151,
          48.828098
        ]
      },
      "properties": {
        "id": "issy_19",
        "name": "Rue Camille Desmoulins, Issy-les-Moulineaux",
        "city": "Issy-les-Moulineaux",
        "type": "Affichage libre",
        "notes": "Affichage libre",
        "street_view": "https://www.google.fr/maps/@48.828098,2.262151,3a,53.6y,176.6h,79.8t/data=!3m4!1e1!3m2!1seyIZKhAroaAI1HG2ni8m6A!2e0"
      }
    },
    {
      "type": "Feature",
      "geometry": {
        "type": "Point",
        "coordinates": [
          2.269862,
          48.817491
        ]
      },
      "properties": {
        "id": "issy_20",
        "name": "rue du fort, Issy-les-Moulineaux",
        "city": "Issy-les-Moulineaux",
        "type": "Affichage libre",
        "notes": "Affichage libre",
        "street_view": "https://www.google.fr/maps/@48.8175362,2.2698904,3a,75y,120.38h,83.27t/data=!3m7!1e1!3m5!1sjaI8AgGzrfVIN9ctiuvnUQ!2e0!6s%2F%2Fgeo1.ggpht.com%2Fcbk%3Fpanoid%3DjaI8AgGzrfVIN9ctiuvnUQ%26output%3Dthumbnail%26cb_client%3Dmaps_sv.tactile.gps%26thumb%3D2%26w%3D203%26h%3D100%26yaw%3D232.30623%26pitch%3D0%26thumbfov%3D100!7i16384!8i8192"
      }
    },
    {
      "type": "Feature",
      "geometry": {
        "type": "Point",
        "coordinates": [
          2.259668,
          48.826405
        ]
      },
      "properties": {
        "id": "issy_21",
        "name": "rue Eugène Atget, Issy-les-Moulineaux",
        "city": "Issy-les-Moulineaux",
        "type": "Affichage libre",
        "notes": "Affichage libre",
        "street_view": "https://www.google.fr/maps/@48.8263286,2.2597039,3a,75y,244.76h,80.62t/data=!3m6!1e1!3m4!1sD3JBoyC3Otm78GBraTVSVw!2e0!7i16384!8i8192"
      }
    }
  ]
}