{
  "type": "FeatureCollection",
  "metadata": {
    "city": "Saint-Nazaire",
    "department": "44 - Loire-Atlantique",
    "count": 42
  },
  "features": [
    {
      "type": "Feature",
      "geometry": {
        "type": "Point",
        "coordinates": [
          -2.231443,
          47.274186
        ]
      },
      "properties": {
        "id": "saint_nazaire_1",
        "name": "Avenue Pierre de Coubertin",
        "city": "Saint-Nazaire",
        "type": "Affichage libre",
        "notes": "",
        "street_view": "https://www.google.com/maps/@47.274186,-2.231443,3a,75y,0h,90t/data=!3m4!1e1!3m2!1s!2e0"
      }
    },
    {
      "type": "Feature",
      "geometry": {
        "type": "Point",
        "coordinates": [
          -2.228903,
          47.279103
        ]
      },
      "properties": {
        "id": "saint_nazaire_2",
        "name": "Rue Etienne Jodelle",
        "city": "Saint-Nazaire",
        "type": "Affichage libre",
        "notes": "",
        "street_view": "https://www.google.com/maps/@47.279103,-2.228903,3a,75y,0h,90t/data=!3m4!1e1!3m2!1s!2e0"
      }
    },
    {
      "type": "Feature",
      "geometry": {
        "type": "Point",
        "coordinates": [
          -2.214788,
          47.281261
        ]
      },
      "properties": {
        "id": "saint_nazaire_3",
        "name": "Rue René Guillouzo",
        "city": "Saint-Nazaire",
        "type": "Affichage libre",
        "notes": "",
        "street_view": "https://www.google.com/maps/@47.281261,-2.214788,3a,75y,0h,90t/data=!3m4!1e1!3m2!1s!2e0"
      }
    },
    {
      "type": "Feature",
      "geometry": {
        "type": "Point",
        "coordinates": [
          -2.278414,
          47.244233
        ]
      },
      "properties": {
        "id": "saint_nazaire_4",
        "name": "Route du Fort de l'Eve",
        "city": "Saint-Nazaire",
        "type": "Affichage libre",
        "notes": "",
        "street_view": "https://www.google.com/maps/@47.244233,-2.278414,3a,75y,0h,90t/data=!3m4!1e1!3m2!1s!2e0"
      }
    },
    {
      "type": "Feature",
      "geometry": {
        "type": "Point",
        "coordinates": [
          -2.233135,
          47.271504
        ]
      },
      "properties": {
        "id": "saint_nazaire_5",
        "name": "Avenue Pierre de Coubertin",
        "city": "Saint-Nazaire",
        "type": "Affichage libre",
        "notes": "",
        "street_view": "https://www.google.com/maps/@47.271504,-2.233135,3a,75y,0h,90t/data=!3m4!1e1!3m2!1s!2e0"
      }
    },
    {
      "type": "Feature",
      "geometry": {
        "type": "Point",
        "coordinates": [
          -2.239508,
          47.274022
        ]
      },
      "properties": {
        "id": "saint_nazaire_6",
        "name": "Rue du Docteur Albert Calmette",
        "city": "Saint-Nazaire",
        "type": "Affichage libre",
        "notes": "",
        "street_view": "https://www.google.com/maps/@47.274022,-2.239508,3a,75y,0h,90t/data=!3m4!1e1!3m2!1s!2e0"
      }
    },
    {
      "type": "Feature",
      "geometry": {
        "type": "Point",
        "coordinates": [
          -2.205007,
          47.289653
        ]
      },
      "properties": {
        "id": "saint_nazaire_7",
        "name": "Avenue d'Herbins",
        "city": "Saint-Nazaire",
        "type": "Affichage libre",
        "notes": "",
        "street_view": "https://www.google.com/maps/@47.289653,-2.205007,3a,75y,0h,90t/data=!3m4!1e1!3m2!1s!2e0"
      }
    },
    {
      "type": "Feature",
      "geometry": {
        "type": "Point",
        "coordinates": [
          -2.212401,
          47.271771
        ]
      },
      "properties": {
        "id": "saint_nazaire_8",
        "name": "Rue Pierre Girard de La Cantrie",
        "city": "Saint-Nazaire",
        "type": "Affichage libre",
        "notes": "",
        "street_view": "https://www.google.com/maps/@47.271771,-2.212401,3a,75y,0h,90t/data=!3m4!1e1!3m2!1s!2e0"
      }
    },
    {
      "type": "Feature",
      "geometry": {
        "type": "Point",
        "coordinates": [
          -2.259698,
          47.29146
        ]
      },
      "properties": {
        "id": "saint_nazaire_9",
        "name": "Chemin du Point du Jour",
        "city": "Saint-Nazaire",
        "type": "Affichage libre",
        "notes": "",
        "street_view": "https://www.google.com/maps/@47.29146,-2.259698,3a,75y,0h,90t/data=!3m4!1e1!3m2!1s!2e0"
      }
    },
    {
      "type": "Feature",
      "geometry": {
        "type": "Point",
        "coordinates": [
          -2.300098,
          47.23682
        ]
      },
      "properties": {
        "id": "saint_nazaire_10",
        "name": "Route de l'Océan",
        "city": "Saint-Nazaire",
        "type": "Affichage libre",
        "notes": "",
        "street_view": "https://www.google.com/maps/@47.23682,-2.300098,3a,75y,0h,90t/data=!3m4!1e1!3m2!1s!2e0"
      }
    },
    {
      "type": "Feature",
      "geometry": {
        "type": "Point",
        "coordinates": [
          -2.280541,
          47.239479
        ]
      },
      "properties": {
        "id": "saint_nazaire_11",
        "name": "Rue Adrien Pichon",
        "city": "Saint-Nazaire",
        "type": "Affichage libre",
        "notes": "",
        "street_view": "https://www.google.com/maps/@47.239479,-2.280541,3a,75y,0h,90t/data=!3m4!1e1!3m2!1s!2e0"
      }
    },
    {
      "type": "Feature",
      "geometry": {
        "type": "Point",
        "coordinates": [
          -2.223601,
          47.273514
        ]
      },
      "properties": {
        "id": "saint_nazaire_12",
        "name": "Avenue Suzanne Lenglen",
        "city": "Saint-Nazaire",
        "type": "Affichage libre",
        "notes": "",
        "street_view": "https://www.google.com/maps/@47.273514,-2.223601,3a,75y,0h,90t/data=!3m4!1e1!3m2!1s!2e0"
      }
    },
    {
      "type": "Feature",
      "geometry": {
        "type": "Point",
        "coordinates": [
          -2.215266,
          47.280852
        ]
      },
      "properties": {
        "id": "saint_nazaire_13",
        "name": "Place du Commerce",
        "city": "Saint-Nazaire",
        "type": "Affichage libre",
        "notes": "",
        "street_view": "https://www.google.com/maps/@47.280852,-2.215266,3a,75y,0h,90t/data=!3m4!1e1!3m2!1s!2e0"
      }
    },
    {
      "type": "Feature",
      "geometry": {
        "type": "Point",
        "coordinates": [
          -2.199638,
          47.290631
        ]
      },
      "properties": {
        "id": "saint_nazaire_14",
        "name": "Boulevard de la Liberté",
        "city": "Saint-Nazaire",
        "type": "Affichage libre",
        "notes": "",
        "street_view": "https://www.google.com/maps/@47.290631,-2.199638,3a,75y,0h,90t/data=!3m4!1e1!3m2!1s!2e0"
      }
    },
    {
      "type": "Feature",
      "geometry": {
        "type": "Point",
        "coordinates": [
          -2.267982,
          47.261681
        ]
      },
      "properties": {
        "id": "saint_nazaire_15",
        "name": "Rue Michel Ange",
        "city": "Saint-Nazaire",
        "type": "Affichage libre",
        "notes": "",
        "street_view": "https://www.google.com/maps/@47.261681,-2.267982,3a,75y,0h,90t/data=!3m4!1e1!3m2!1s!2e0"
      }
    },
    {
      "type": "Feature",
      "geometry": {
        "type": "Point",
        "coordinates": [
          -2.258004,
          47.260424
        ]
      },
      "properties": {
        "id": "saint_nazaire_16",
        "name": "Boulevard Emile Broodcoorens",
        "city": "Saint-Nazaire",
        "type": "Affichage libre",
        "notes": "",
        "street_view": "https://www.google.com/maps/@47.260424,-2.258004,3a,75y,0h,90t/data=!3m4!1e1!3m2!1s!2e0"
      }
    },
    {
      "type": "Feature",
      "geometry": {
        "type": "Point",
        "coordinates": [
          -2.239471,
          47.265755
        ]
      },
      "properties": {
        "id": "saint_nazaire_17",
        "name": "Rue Georges Bizet",
        "city": "Saint-Nazaire",
        "type": "Affichage libre",
        "notes": "",
        "street_view": "https://www.google.com/maps/@47.265755,-2.239471,3a,75y,0h,90t/data=!3m4!1e1!3m2!1s!2e0"
      }
    },
    {
      "type": "Feature",
      "geometry": {
        "type": "Point",
        "coordinates": [
          -2.237287,
          47.272458
        ]
      },
      "properties": {
        "id": "saint_nazaire_18",
        "name": "Boulevard du Docteur René Laënnec",
        "city": "Saint-Nazaire",
        "type": "Affichage libre",
        "notes": "",
        "street_view": "https://www.google.com/maps/@47.272458,-2.237287,3a,75y,0h,90t/data=!3m4!1e1!3m2!1s!2e0"
      }
    },
    {
      "type": "Feature",
      "geometry": {
        "type": "Point",
        "coordinates": [
          -2.201759,
          47.284441
        ]
      },
      "properties": {
        "id": "saint_nazaire_19",
        "name": "Rue de la Ville Halluard",
        "city": "Saint-Nazaire",
        "type": "Affichage libre",
        "notes": "",
        "street_view": "https://www.google.com/maps/@47.284441,-2.201759,3a,75y,0h,90t/data=!3m4!1e1!3m2!1s!2e0"
      }
    },
    {
      "type": "Feature",
      "geometry": {
        "type": "Point",
        "coordinates": [
          -2.19821,
          47.293469
        ]
      },
      "properties": {
        "id": "saint_nazaire_20",
        "name": "Boulevard de la Liberté",
        "city": "Saint-Nazaire",
        "type": "Affichage libre",
        "notes": "",
        "street_view": "https://www.google.com/maps/@47.293469,-2.19821,3a,75y,0h,90t/data=!3m4!1e1!3m2!1s!2e0"
      }
    },
    {
      "type": "Feature",
      "geometry": {
        "type": "Point",
        "coordinates": [
          -2.236089,
          47.260063
        ]
      },
      "properties": {
        "id": "saint_nazaire_21",
        "name": "Rue Ambroise Paré",
        "city": "Saint-Nazaire",
        "type": "Affichage libre",
        "notes": "",
        "street_view": "https://www.google.com/maps/@47.260063,-2.236089,3a,75y,0h,90t/data=!3m4!1e1!3m2!1s!2e0"
      }
    },
    {
      "type": "Feature",
      "geometry": {
        "type": "Point",
        "coordinates": [
          -2.239767,
          47.281062
        ]
      },
      "properties": {
        "id": "saint_nazaire_22",
        "name": "Rue Baptiste Marcet",
        "city": "Saint-Nazaire",
        "type": "Affichage libre",
        "notes": "",
        "street_view": "https://www.google.com/maps/@47.281062,-2.239767,3a,75y,0h,90t/data=!3m4!1e1!3m2!1s!2e0"
      }
    },
    {
      "type": "Feature",
      "geometry": {
        "type": "Point",
        "coordinates": [
          -2.257826,
          47.251839
        ]
      },
      "properties": {
        "id": "saint_nazaire_23",
        "name": "Chemin des Infirmières",
        "city": "Saint-Nazaire",
        "type": "Affichage libre",
        "notes": "",
        "street_view": "https://www.google.com/maps/@47.251839,-2.257826,3a,75y,0h,90t/data=!3m4!1e1!3m2!1s!2e0"
      }
    },
    {
      "type": "Feature",
      "geometry": {
        "type": "Point",
        "coordinates": [
          -2.262818,
          47.258695
        ]
      },
      "properties": {
        "id": "saint_nazaire_24",
        "name": "Chemin des Infirmières",
        "city": "Saint-Nazaire",
        "type": "Affichage libre",
        "notes": "",
        "street_view": "https://www.google.com/maps/@47.258695,-2.262818,3a,75y,0h,90t/data=!3m4!1e1!3m2!1s!2e0"
      }
    },
    {
      "type": "Feature",
      "geometry": {
        "type": "Point",
        "coordinates": [
          -2.24613,
          47.261417
        ]
      },
      "properties": {
        "id": "saint_nazaire_25",
        "name": "Place du Roussillon",
        "city": "Saint-Nazaire",
        "type": "Affichage libre",
        "notes": "",
        "street_view": "https://www.google.com/maps/@47.261417,-2.24613,3a,75y,0h,90t/data=!3m4!1e1!3m2!1s!2e0"
      }
    },
    {
      "type": "Feature",
      "geometry": {
        "type": "Point",
        "coordinates": [
          -2.236335,
          47.257739
        ]
      },
      "properties": {
        "id": "saint_nazaire_26",
        "name": "Rue Ambroise Paré",
        "city": "Saint-Nazaire",
        "type": "Affichage libre",
        "notes": "",
        "street_view": "https://www.google.com/maps/@47.257739,-2.236335,3a,75y,0h,90t/data=!3m4!1e1!3m2!1s!2e0"
      }
    },
    {
      "type": "Feature",
      "geometry": {
        "type": "Point",
        "coordinates": [
          -2.214267,
          47.280988
        ]
      },
      "properties": {
        "id": "saint_nazaire_27",
        "name": "Place du Commerce",
        "city": "Saint-Nazaire",
        "type": "Affichage libre",
        "notes": "",
        "street_view": "https://www.google.com/maps/@47.280988,-2.214267,3a,75y,0h,90t/data=!3m4!1e1!3m2!1s!2e0"
      }
    },
    {
      "type": "Feature",
      "geometry": {
        "type": "Point",
        "coordinates": [
          -2.206215,
          47.274489
        ]
      },
      "properties": {
        "id": "saint_nazaire_28",
        "name": "Rue du Bois Savary",
        "city": "Saint-Nazaire",
        "type": "Affichage libre",
        "notes": "",
        "street_view": "https://www.google.com/maps/@47.274489,-2.206215,3a,75y,0h,90t/data=!3m4!1e1!3m2!1s!2e0"
      }
    },
    {
      "type": "Feature",
      "geometry": {
        "type": "Point",
        "coordinates": [
          -2.190265,
          47.296043
        ]
      },
      "properties": {
        "id": "saint_nazaire_29",
        "name": "Rue de Trignac",
        "city": "Saint-Nazaire",
        "type": "Affichage libre",
        "notes": "",
        "street_view": "https://www.google.com/maps/@47.296043,-2.190265,3a,75y,0h,90t/data=!3m4!1e1!3m2!1s!2e0"
      }
    },
    {
      "type": "Feature",
      "geometry": {
        "type": "Point",
        "coordinates": [
          -2.274226,
          47.245158
        ]
      },
      "properties": {
        "id": "saint_nazaire_30",
        "name": "Avenue du Commandant Cousteau",
        "city": "Saint-Nazaire",
        "type": "Affichage libre",
        "notes": "",
        "street_view": "https://www.google.com/maps/@47.245158,-2.274226,3a,75y,0h,90t/data=!3m4!1e1!3m2!1s!2e0"
      }
    },
    {
      "type": "Feature",
      "geometry": {
        "type": "Point",
        "coordinates": [
          -2.246713,
          47.259044
        ]
      },
      "properties": {
        "id": "saint_nazaire_31",
        "name": "Rue Ferdinand Buisson",
        "city": "Saint-Nazaire",
        "type": "Affichage libre",
        "notes": "",
        "street_view": "https://www.google.com/maps/@47.259044,-2.246713,3a,75y,0h,90t/data=!3m4!1e1!3m2!1s!2e0"
      }
    },
    {
      "type": "Feature",
      "geometry": {
        "type": "Point",
        "coordinates": [
          -2.215605,
          47.277607
        ]
      },
      "properties": {
        "id": "saint_nazaire_32",
        "name": "Rue des Halles",
        "city": "Saint-Nazaire",
        "type": "Affichage libre",
        "notes": "",
        "street_view": "https://www.google.com/maps/@47.277607,-2.215605,3a,75y,0h,90t/data=!3m4!1e1!3m2!1s!2e0"
      }
    },
    {
      "type": "Feature",
      "geometry": {
        "type": "Point",
        "coordinates": [
          -2.266089,
          47.242337
        ]
      },
      "properties": {
        "id": "saint_nazaire_33",
        "name": "Route du Fort de l'Eve",
        "city": "Saint-Nazaire",
        "type": "Affichage libre",
        "notes": "",
        "street_view": "https://www.google.com/maps/@47.242337,-2.266089,3a,75y,0h,90t/data=!3m4!1e1!3m2!1s!2e0"
      }
    },
    {
      "type": "Feature",
      "geometry": {
        "type": "Point",
        "coordinates": [
          -2.273333,
          47.240993
        ]
      },
      "properties": {
        "id": "saint_nazaire_34",
        "name": "Route du Fort de l'Eve",
        "city": "Saint-Nazaire",
        "type": "Affichage libre",
        "notes": "",
        "street_view": "https://www.google.com/maps/@47.240993,-2.273333,3a,75y,0h,90t/data=!3m4!1e1!3m2!1s!2e0"
      }
    },
    {
      "type": "Feature",
      "geometry": {
        "type": "Point",
        "coordinates": [
          -2.227802,
          47.258202
        ]
      },
      "properties": {
        "id": "saint_nazaire_35",
        "name": "Rue Marcel Sembat",
        "city": "Saint-Nazaire",
        "type": "Affichage libre",
        "notes": "",
        "street_view": "https://www.google.com/maps/@47.258202,-2.227802,3a,75y,0h,90t/data=!3m4!1e1!3m2!1s!2e0"
      }
    },
    {
      "type": "Feature",
      "geometry": {
        "type": "Point",
        "coordinates": [
          -2.218954,
          47.287878
        ]
      },
      "properties": {
        "id": "saint_nazaire_36",
        "name": "Passerelle de Prézégat",
        "city": "Saint-Nazaire",
        "type": "Affichage libre",
        "notes": "",
        "street_view": "https://www.google.com/maps/@47.287878,-2.218954,3a,75y,0h,90t/data=!3m4!1e1!3m2!1s!2e0"
      }
    },
    {
      "type": "Feature",
      "geometry": {
        "type": "Point",
        "coordinates": [
          -2.186127,
          47.302553
        ]
      },
      "properties": {
        "id": "saint_nazaire_37",
        "name": "Boulevard Emile Zola",
        "city": "Saint-Nazaire",
        "type": "Affichage libre",
        "notes": "",
        "street_view": "https://www.google.com/maps/@47.302553,-2.186127,3a,75y,0h,90t/data=!3m4!1e1!3m2!1s!2e0"
      }
    },
    {
      "type": "Feature",
      "geometry": {
        "type": "Point",
        "coordinates": [
          -2.260742,
          47.279741
        ]
      },
      "properties": {
        "id": "saint_nazaire_38",
        "name": "Place Fernand Guériff",
        "city": "Saint-Nazaire",
        "type": "Affichage libre",
        "notes": "",
        "street_view": "https://www.google.com/maps/@47.279741,-2.260742,3a,75y,0h,90t/data=!3m4!1e1!3m2!1s!2e0"
      }
    },
    {
      "type": "Feature",
      "geometry": {
        "type": "Point",
        "coordinates": [
          -2.257643,
          47.256462
        ]
      },
      "properties": {
        "id": "saint_nazaire_39",
        "name": "Chemin de Porcé",
        "city": "Saint-Nazaire",
        "type": "Affichage libre",
        "notes": "",
        "street_view": "https://www.google.com/maps/@47.256462,-2.257643,3a,75y,0h,90t/data=!3m4!1e1!3m2!1s!2e0"
      }
    },
    {
      "type": "Feature",
      "geometry": {
        "type": "Point",
        "coordinates": [
          -2.236829,
          47.257041
        ]
      },
      "properties": {
        "id": "saint_nazaire_40",
        "name": "Allée Camille Muffat",
        "city": "Saint-Nazaire",
        "type": "Affichage libre",
        "notes": "",
        "street_view": "https://www.google.com/maps/@47.257041,-2.236829,3a,75y,0h,90t/data=!3m4!1e1!3m2!1s!2e0"
      }
    },
    {
      "type": "Feature",
      "geometry": {
        "type": "Point",
        "coordinates": [
          -2.220163,
          47.291033
        ]
      },
      "properties": {
        "id": "saint_nazaire_41",
        "name": "Rue Edgar Degas",
        "city": "Saint-Nazaire",
        "type": "Affichage libre",
        "notes": "",
        "street_view": "https://www.google.com/maps/@47.291033,-2.220163,3a,75y,0h,90t/data=!3m4!1e1!3m2!1s!2e0"
      }
    },
    {
      "type": "Feature",
      "geometry": {
        "type": "Point",
        "coordinates": [
          -2.184564,
          47.299237
        ]
      },
      "properties": {
        "id": "saint_nazaire_42",
        "name": "Rue de Trignac",
        "city": "Saint-Nazaire",
        "type": "Affichage libre",
        "notes": "",
        "street_view": "https://www.google.com/maps/@47.299237,-2.184564,3a,75y,0h,90t/data=!3m4!1e1!3m2!1s!2e0"
      }
    }
  ]
}